NUSAT-49 (KLARA DAN VO*)
1 60500U 24149AJ  26068.79810190  .00012912  00000+0  43568-3 0  9991
2 60500  97.3807 150.7380 0001132 286.7761  73.3356 15.30828857 86935
STARLINK-31756          
1 61517U 24183J   26068.47295911 -.00000007  00000+0  11885-4 0  9992
2 61517  53.1601 143.7994 0001087 100.4447 259.6676 15.30187948 79611
